{"type": "FeatureCollection", "features": [ {"type": "Feature", "properties": {"norad_id": 66917, "name": "HULIANWANG DIGUI-107", "group": "last-30-days", "lat": -24.52876763731961, "lon": -64.0232062833013, "alt_km": 884.4508008136172, "timestamp": "2025-12-18T13:51:48.381336+00:00", "meta": {"OBJECT_NAME": "HULIANWANG DIGUI-107", "OBJECT_ID": "2025-285C", "EPOCH": "2025-12-18T07:43:38.460288", "MEAN_MOTION": 14.03661898, "ECCENTRICITY": 0.00074679, "INCLINATION": 50.0022, "RA_OF_ASC_NODE": 94.4912, "ARG_OF_PERICENTER": 304.0473, "MEAN_ANOMALY": 55.9721, "EPHEMERIS_TYPE": 0, "CLASSIFICATION_TYPE": "U", "NORAD_CAT_ID": 66917, "ELEMENT_SET_NO": 999, "REV_AT_EPOCH": 169, "BSTAR": -2.0341085e-05, "MEAN_MOTION_DOT": -1.84e-06, "MEAN_MOTION_DDOT": 0}, "tle": {"line1": "1 66917U 25285C   25352.32197292 -.00000184  00000+0 -20341-4 0  9991", "line2": "2 66917  50.0022  94.4912 0007467 304.0473  55.9721 14.03661898  1695"}}, "geometry": {"type": "Point", "coordinates": [-64.0232062833013, -24.52876763731961]}}, {"type": "Feature", "properties": {"norad_id": 66918, "name": "HULIANWANG DIGUI-108", "group": "last-30-days", "lat": -27.619203188853863, "lon": -60.4996420055481, "alt_km": 884.0493956722539, "timestamp": "2025-12-18T13:51:48.381348+00:00", "meta": {"OBJECT_NAME": "HULIANWANG DIGUI-108", "OBJECT_ID": "2025-285D", "EPOCH": "2025-12-18T07:42:22.066272", "MEAN_MOTION": 14.03600941, "ECCENTRICITY": 0.00065942, "INCLINATION": 50.0044, "RA_OF_ASC_NODE": 94.4901, "ARG_OF_PERICENTER": 298.608, "MEAN_ANOMALY": 61.4161, "EPHEMERIS_TYPE": 0, "CLASSIFICATION_TYPE": "U", "NORAD_CAT_ID": 66918, "ELEMENT_SET_NO": 999, "REV_AT_EPOCH": 169, "BSTAR": -1.1917262e-05, "MEAN_MOTION_DOT": -1.7e-06, "MEAN_MOTION_DDOT": 0}, "tle": {"line1": "1 66918U 25285D   25352.32108873 -.00000170  00000+0 -11917-4 0  9993", "line2": "2 66918  50.0044  94.4901 0006594 298.6080  61.4161 14.03600941  1692"}}, "geometry": {"type": "Point", "coordinates": [-60.4996420055481, -27.619203188853863]}}, {"type": "Feature", "properties": {"norad_id": 66919, "name": "HULIANWANG DIGUI-109", "group": "last-30-days", "lat": -31.76109401266097, "lon": -55.251410679435466, "alt_km": 884.3985612970473, "timestamp": "2025-12-18T13:51:48.381359+00:00", "meta": {"OBJECT_NAME": "HULIANWANG DIGUI-109", "OBJECT_ID": "2025-285E", "EPOCH": "2025-12-18T07:40:38.329248", "MEAN_MOTION": 14.03724969, "ECCENTRICITY": 0.0007883, "INCLINATION": 50.0068, "RA_OF_ASC_NODE": 94.488, "ARG_OF_PERICENTER": 311.0221, "MEAN_ANOMALY": 49.0001, "EPHEMERIS_TYPE": 0, "CLASSIFICATION_TYPE": "U", "NORAD_CAT_ID": 66919, "ELEMENT_SET_NO": 999, "REV_AT_EPOCH": 169, "BSTAR": -1.9956133e-05, "MEAN_MOTION_DOT": -1.83e-06, "MEAN_MOTION_DDOT": 0}, "tle": {"line1": "1 66919U 25285E   25352.31988807 -.00000183  00000+0 -19956-4 0  9991", "line2": "2 66919  50.0068  94.4880 0007883 311.0221  49.0001 14.03724969  1696"}}, "geometry": {"type": "Point", "coordinates": [-55.251410679435466, -31.76109401266097]}}, {"type": "Feature", "properties": {"norad_id": 66920, "name": "HULIANWANG DIGUI-110", "group": "last-30-days", "lat": -34.78574891568674, "lon": -50.90249238628422, "alt_km": 884.2466185511712, "timestamp": "2025-12-18T13:51:48.381372+00:00", "meta": {"OBJECT_NAME": "HULIANWANG DIGUI-110", "OBJECT_ID": "2025-285F", "EPOCH": "2025-12-18T07:39:17.487360", "MEAN_MOTION": 14.03681641, "ECCENTRICITY": 0.00055725, "INCLINATION": 50.0113, "RA_OF_ASC_NODE": 94.4884, "ARG_OF_PERICENTER": 308.2158, "MEAN_ANOMALY": 51.8244, "EPHEMERIS_TYPE": 0, "CLASSIFICATION_TYPE": "U", "NORAD_CAT_ID": 66920, "ELEMENT_SET_NO": 999, "REV_AT_EPOCH": 169, "BSTAR": 0.00016880328, "MEAN_MOTION_DOT": 1.15e-06, "MEAN_MOTION_DDOT": 0}, "tle": {"line1": "1 66920U 25285F   25352.31895240  .00000115  00000+0  16880-3 0  9996", "line2": "2 66920  50.0113  94.4884 0005572 308.2158  51.8244 14.03681641  1692"}}, "geometry": {"type": "Point", "coordinates": [-50.90249238628422, -34.78574891568674]}}, {"type": "Feature", "properties": {"norad_id": 66921, "name": "HULIANWANG DIGUI-111", "group": "last-30-days", "lat": -37.711731756930575, "lon": -46.10955774237482, "alt_km": 884.6621056165186, "timestamp": "2025-12-18T13:51:48.381382+00:00", "meta": {"OBJECT_NAME": "HULIANWANG DIGUI-111", "OBJECT_ID": "2025-285G", "EPOCH": "2025-12-17T23:05:16.535616", "MEAN_MOTION": 14.0363017, "ECCENTRICITY": 0.00067288, "INCLINATION": 50.0124, "RA_OF_ASC_NODE": 95.9368, "ARG_OF_PERICENTER": 314.3427, "MEAN_ANOMALY": 45.6925, "EPHEMERIS_TYPE": 0, "CLASSIFICATION_TYPE": "U", "NORAD_CAT_ID": 66921, "ELEMENT_SET_NO": 999, "REV_AT_EPOCH": 164, "BSTAR": -1.7804653e-05, "MEAN_MOTION_DOT": -1.8e-06, "MEAN_MOTION_DDOT": 0}, "tle": {"line1": "1 66921U 25285G   25351.96199694 -.00000180  00000+0 -17805-4 0  9990", "line2": "2 66921  50.0124  95.9368 0006728 314.3427  45.6925 14.03630170  1642"}}, "geometry": {"type": "Point", "coordinates": [-46.10955774237482, -37.711731756930575]}}, {"type": "Feature", "properties": {"norad_id": 66922, "name": "HULIANWANG DIGUI-112", "group": "last-30-days", "lat": -40.45646588679885, "lon": -40.87963713525808, "alt_km": 884.8869811354625, "timestamp": "2025-12-18T13:51:48.381395+00:00", "meta": {"OBJECT_NAME": "HULIANWANG DIGUI-112", "OBJECT_ID": "2025-285H", "EPOCH": "2025-12-18T07:36:30.083904", "MEAN_MOTION": 14.03660786, "ECCENTRICITY": 0.00064812, "INCLINATION": 50.009, "RA_OF_ASC_NODE": 94.4749, "ARG_OF_PERICENTER": 322.5841, "MEAN_ANOMALY": 37.4612, "EPHEMERIS_TYPE": 0, "CLASSIFICATION_TYPE": "U", "NORAD_CAT_ID": 66922, "ELEMENT_SET_NO": 999, "REV_AT_EPOCH": 169, "BSTAR": -1.789144e-06, "MEAN_MOTION_DOT": -1.54e-06, "MEAN_MOTION_DDOT": 0}, "tle": {"line1": "1 66922U 25285H   25352.31701486 -.00000154  00000+0 -17891-5 0  9996", "line2": "2 66922  50.0090  94.4749 0006481 322.5841  37.4612 14.03660786  1692"}}, "geometry": {"type": "Point", "coordinates": [-40.87963713525808, -40.45646588679885]}}, {"type": "Feature", "properties": {"norad_id": 66923, "name": "HULIANWANG DIGUI-113", "group": "last-30-days", "lat": -43.24505061054658, "lon": -34.46366429843034, "alt_km": 883.0855603021937, "timestamp": "2025-12-18T13:51:48.381405+00:00", "meta": {"OBJECT_NAME": "HULIANWANG DIGUI-113", "OBJECT_ID": "2025-285J", "EPOCH": "2025-12-18T07:35:01.191264", "MEAN_MOTION": 14.040024, "ECCENTRICITY": 0.00052315, "INCLINATION": 50.01, "RA_OF_ASC_NODE": 94.4708, "ARG_OF_PERICENTER": 315.5251, "MEAN_ANOMALY": 44.5233, "EPHEMERIS_TYPE": 0, "CLASSIFICATION_TYPE": "U", "NORAD_CAT_ID": 66923, "ELEMENT_SET_NO": 999, "REV_AT_EPOCH": 169, "BSTAR": 0.00018208635, "MEAN_MOTION_DOT": 1.38e-06, "MEAN_MOTION_DDOT": 0}, "tle": {"line1": "1 66923U 25285J   25352.31598601  .00000138  00000+0  18209-3 0  9992", "line2": "2 66923  50.0100  94.4708 0005231 315.5251  44.5233 14.04002400  1691"}}, "geometry": {"type": "Point", "coordinates": [-34.46366429843034, -43.24505061054658]}}, {"type": "Feature", "properties": {"norad_id": 66924, "name": "CZ-8A R/B", "group": "last-30-days", "lat": -46.63198954660411, "lon": -25.991427463136194, "alt_km": 841.8626161446455, "timestamp": "2025-12-18T13:51:48.381416+00:00", "meta": {"OBJECT_NAME": "CZ-8A R/B", "OBJECT_ID": "2025-285K", "EPOCH": "2025-12-18T05:59:46.227840", "MEAN_MOTION": 14.30503972, "ECCENTRICITY": 0.01192776, "INCLINATION": 50.0073, "RA_OF_ASC_NODE": 92.6994, "ARG_OF_PERICENTER": 126.1691, "MEAN_ANOMALY": 235.0329, "EPHEMERIS_TYPE": 0, "CLASSIFICATION_TYPE": "U", "NORAD_CAT_ID": 66924, "ELEMENT_SET_NO": 999, "REV_AT_EPOCH": 171, "BSTAR": 5.3862849e-05, "MEAN_MOTION_DOT": -1.4e-07, "MEAN_MOTION_DDOT": 0}, "tle": {"line1": "1 66924U 25285K   25352.24984060 -.00000014  00000+0  53863-4 0  9993", "line2": "2 66924  50.0073  92.6994 0119277 126.1691 235.0329 14.30503972  1713"}}, "geometry": {"type": "Point", "coordinates": [-25.991427463136194, -46.63198954660411]}}, {"type": "Feature", "properties": {"norad_id": 66925, "name": "STARLINK-35945", "group": "last-30-days", "lat": 48.7318692351075, "lon": 79.80897640225098, "alt_km": 315.8738793072471, "timestamp": "2025-12-18T13:51:48.381427+00:00", "meta": {"OBJECT_NAME": "STARLINK-35945", "OBJECT_ID": "2025-286A", "EPOCH": "2025-12-18T06:00:02.999808", "MEAN_MOTION": 15.83618123, "ECCENTRICITY": 6.791e-05, "INCLINATION": 53.1566, "RA_OF_ASC_NODE": 22.7557, "ARG_OF_PERICENTER": 93.4623, "MEAN_ANOMALY": 268.3035, "EPHEMERIS_TYPE": 0, "CLASSIFICATION_TYPE": "U", "NORAD_CAT_ID": 66925, "ELEMENT_SET_NO": 999, "REV_AT_EPOCH": 287, "BSTAR": -0.0066315268, "MEAN_MOTION_DOT": -0.01309892, "MEAN_MOTION_DDOT": 0}, "tle": {"line1": "1 66925U 25286A   25352.25003472 -.01309892  00000+0 -66315-2 0  9997", "line2": "2 66925  53.1566  22.7557 0000679  93.4623 268.3035 15.83618123  2875"}}, "geometry": {"type": "Point", "coordinates": [79.80897640225098, 48.7318692351075]}}, {"type": "Feature", "properties": {"norad_id": 66926, "name": "STARLINK-35942", "group": "last-30-days", "lat": 50.46945275328437, "lon": 86.41475508395263, "alt_km": 315.6183990228319, "timestamp": "2025-12-18T13:51:48.381437+00:00", "meta": {"OBJECT_NAME": "STARLINK-35942", "OBJECT_ID": "2025-286B", "EPOCH": "2025-12-18T06:00:02.999808", "MEAN_MOTION": 15.83623073, "ECCENTRICITY": 6.517e-05, "INCLINATION": 53.1565, "RA_OF_ASC_NODE": 22.7459, "ARG_OF_PERICENTER": 86.6508, "MEAN_ANOMALY": 279.7318, "EPHEMERIS_TYPE": 0, "CLASSIFICATION_TYPE": "U", "NORAD_CAT_ID": 66926, "ELEMENT_SET_NO": 999, "REV_AT_EPOCH": 287, "BSTAR": -0.0067176274, "MEAN_MOTION_DOT": -0.01325059, "MEAN_MOTION_DDOT": 0}, "tle": {"line1": "1 66926U 25286B   25352.25003472 -.01325059  00000+0 -67176-2 0  9997", "line2": "2 66926  53.1565  22.7459 0000651  86.6508 279.7318 15.83623073  2872"}}, "geometry": {"type": "Point", "coordinates": [86.41475508395263, 50.46945275328437]}}]}